{
    "links": {
        "self": "http://www.neowsapp.com/rest/v1/neo/3837601?api_key=iIulBulltgU6a56xZRHN4H3l9WmuAYTsLGpBGhQ2"
    },
    "id": "3837601",
    "neo_reference_id": "3837601",
    "name": "(2019 AB3)",
    "designation": "2019 AB3",
    "nasa_jpl_url": "http://ssd.jpl.nasa.gov/sbdb.cgi?sstr=3837601",
    "absolute_magnitude_h": 24.5,
    "estimated_diameter": {
        "kilometers": {
            "estimated_diameter_min": 0.0334622374,
            "estimated_diameter_max": 0.0748238376
        },
        "meters": {
            "estimated_diameter_min": 33.4622374455,
            "estimated_diameter_max": 74.8238376074
        },
        "miles": {
            "estimated_diameter_min": 0.0207924639,
            "estimated_diameter_max": 0.0464933628
        },
        "feet": {
            "estimated_diameter_min": 109.7842471007,
            "estimated_diameter_max": 245.4850393757
        }
    },
    "is_potentially_hazardous_asteroid": false,
    "close_approach_data": [
        {
            "close_approach_date": "2019-01-05",
            "close_approach_date_full": "2019-Jan-05 05:41",
            "epoch_date_close_approach": 1546666860000,
            "relative_velocity": {
                "kilometers_per_second": "5.646201041",
                "kilometers_per_hour": "20326.3237474316",
                "miles_per_hour": "12629.9871085083"
            },
            "miss_distance": {
                "astronomical": "0.1629185617",
                "lunar": "63.3753205013",
                "kilometers": "24372269.813783579",
                "miles": "15144226.2151842302"
            },
            "orbiting_body": "Earth"
        },
        {
            "close_approach_date": "2021-01-28",
            "close_approach_date_full": "2021-Jan-28 02:01",
            "epoch_date_close_approach": 1611799260000,
            "relative_velocity": {
                "kilometers_per_second": "2.9199277086",
                "kilometers_per_hour": "10511.7397509785",
                "miles_per_hour": "6531.5862913788"
            },
            "miss_distance": {
                "astronomical": "1.6609362259",
                "lunar": "646.1041918751",
                "kilometers": "248472521.600478833",
                "miles": "154393665.5931325754"
            },
            "orbiting_body": "Juptr"
        }
    ],
    "orbital_data": {
        "orbit_id": "6",
        "orbit_determination_date": "2019-03-02 06:58:10",
        "first_observation_date": "2019-01-03",
        "last_observation_date": "2019-03-01",
        "data_arc_in_days": 57,
        "observations_used": 21,
        "orbit_uncertainty": "6",
        "minimum_orbit_intersection": ".138699",
        "jupiter_tisserand_invariant": "3.314",
        "epoch_osculation": "2459000.5",
        "eccentricity": ".5333964860430911",
        "semi_major_axis": "2.40352694489917",
        "inclination": "1.909898354248041",
        "ascending_node_longitude": "270.4378229834052",
        "orbital_period": "1361.043229940794",
        "perihelion_distance": "1.121494118380067",
        "perihelion_argument": "200.5211704106764",
        "aphelion_distance": "3.685559771418274",
        "perihelion_time": "2458490.262513388919",
        "mean_anomaly": "134.9593393796754",
        "mean_motion": ".2645029871796652",
        "equinox": "J2000",
        "orbit_class": {
            "orbit_class_type": "AMO",
            "orbit_class_description": "Near-Earth asteroid orbits similar to that of 1221 Amor",
            "orbit_class_range": "1.017 AU < q (perihelion) < 1.3 AU"
        }
    },
    "is_sentry_object": false
}